CAS-2T & KS-1Q          
1 41847U 16066G   20193.55952043  .00000025  00000-0  13764-4 0  9993
2 41847  98.6520 244.3182 0366241 156.9449 204.8657 14.38076636192884
NAYIF-1 (EO-88)         
1 42017U 17008BX  20193.47499495  .00000907  00000-0  37448-4 0  9992
2 42017  97.3586 260.6864 0004862 225.3283 134.7560 15.26552450189213
MAX VALIER SAT          
1 42778U 17036P   20193.39493238  .00000545  00000-0  26341-4 0  9995
2 42778  97.3031 246.3671 0010579 302.6343  57.3873 15.22655444169372
RADFXSAT (FOX-1B)       
1 43017U 17073E   20193.27197775  .00000384  00000-0  35700-4 0  9997
2 43017  97.7217 104.5885 0256291 333.1023  25.7089 14.78966120142687
FOX-1D (AO-92)          
1 43137U 18004AC  20193.44733875  .00000583  00000-0  26912-4 0  9997
2 43137  97.4447 264.4454 0008418 341.8765  18.2171 15.24160931138700
DIWATA-2B               
1 43678U 18084H   20193.62371376  .00000061  00000-0  11823-4 0  9995
2 43678  97.8876 312.0296 0011355  96.6841 263.5699 14.91637061 92624
ES'HAIL 2               
1 43700U 18090A   20193.29702390  .00000142  00000-0  00000-0 0  9996
2 43700   0.0162  78.4678 0001625  62.0177 281.8845  1.00274137  5941
FOX-1CLIFF (AO-95)      
1 43770U 18099N   20193.47000164  .00000413  00000-0  42934-4 0  9999
2 43770  97.7047 264.4313 0016070 115.0807 245.2084 14.95001909 87509
ITASAT 1                
1 43786U 18099AE  20193.46149318  .00000047  00000-0  94745-5 0  9991
2 43786  97.7062 264.8597 0016661 109.3500 250.9523 14.95338542 87522
JY1SAT (JO-97)          
1 43803U 18099AX  20193.47318031  .00000506  00000-0  50753-4 0  9992
2 43803  97.7023 264.6842 0016737 109.7223 250.5805 14.95518494 87525
PSAT2 (NO-104)          
1 44354U 19036R   20193.41781471  .00006714  00000-0  94868-4 0  9994
2 44354  28.5302 223.1908 0363007 206.9655 151.1640 15.03761215 57437
BRICSAT2 (NO-103)       
1 44355U 19036S   20193.40482332  .00011988  00000-0  16452-3 0  9999
2 44355  28.5306 213.3142 0340788 223.0239 134.3230 15.09372526 57530
JAISAT-1                
1 44419U 19038F   20193.43351977  .00000588  00000-0  37027-4 0  9991
2 44419  97.5398 154.7501 0022989  50.8645 309.4625 15.12811292 56222
DUCHIFAT-3              
1 44854U 19089C   20193.53986376  .00000204  00000-0  22870-4 0  9993
2 44854  36.9696 316.0072 0009324 266.1418  93.8252 14.99081778 31918
RS-44 & BREEZE-KM R/B   
1 44909U 19096E   20193.43894310  .00000024  00000-0  46925-4 0  9994
2 44909  82.5225 339.3727 0217672 170.1525 190.3949 12.79708210 25258
ORBITAL FACTORY 2 (OF-2)
1 45113U 19071C   20193.53279304  .00000570  00000-0  28950-4 0  9990
2 45113  51.6433 247.2221 0013280 142.9414 217.2487 15.33422091 24824
HUSKYSAT-1              
1 45119U 19071J   20193.44267371  .00000603  00000-0  29769-4 0  9993
2 45119  51.6432 247.3710 0012574 138.9719 221.2211 15.33633103 24807
